     3.04           N: GNSS NAV DATA    M: MIXED            RINEX VERSION / TYPE
ssrcrin-15.6.1x                         20250101 031500 UTC PGM / RUN BY / DATE 
    18                                                      LEAP SECONDS        
                                                            END OF HEADER       
E18 2025 01 01 03 10 00 9.479667060077E-04 4.281730525690E-11 0.000000000000E+00
     7.000000000000E+01 2.506250000000E+01 5.535944880039E-09 9.437875840840E-02
     1.087784767151E-06 1.621187203564E-01 6.034970283508E-06 5.289328205109E+03
     2.706000000000E+05 3.440305590630E-06-2.841227874488E+00 1.251697540283E-06
     8.635383541129E-01 1.892500000000E+02 2.772374101949E+00-7.419237612455E-09
    -8.882512849457E-10 5.170000000000E+02 2.347000000000E+03
     3.120000000000E+00 1.300000000000E+02-3.259629011154E-09-3.259629011154E-09
     2.714720000000E+05
S36 2025 01 01 03 24 32 0.000000000000E+00 0.000000000000E+00 2.714770000000E+05
     4.200368800000E+04 0.000000000000E+00 0.000000000000E+00 6.300000000000E+01
     3.674846960000E+03 0.000000000000E+00 0.000000000000E+00 3.276700000000E+04
     0.000000000000E+00 0.000000000000E+00 0.000000000000E+00 2.330000000000E+02
S23 2025 01 01 03 25 36 0.000000000000E+00 0.000000000000E+00 2.715410000000E+05
     3.866796400000E+04 0.000000000000E+00 0.000000000000E+00 6.300000000000E+01
     1.681330800000E+04 0.000000000000E+00 0.000000000000E+00 3.276700000000E+04
     0.000000000000E+00 0.000000000000E+00 0.000000000000E+00 8.400000000000E+01
S36 2025 01 01 03 27 12 0.000000000000E+00 0.000000000000E+00 2.716330000000E+05
     4.200368800000E+04 0.000000000000E+00 0.000000000000E+00 6.300000000000E+01
     3.674846960000E+03 0.000000000000E+00 0.000000000000E+00 3.276700000000E+04
     0.000000000000E+00 0.000000000000E+00 0.000000000000E+00 2.340000000000E+02
S23 2025 01 01 03 27 44 0.000000000000E+00 0.000000000000E+00 2.716660000000E+05
     3.866796400000E+04 0.000000000000E+00 0.000000000000E+00 6.300000000000E+01
     1.681330800000E+04 0.000000000000E+00 0.000000000000E+00 3.276700000000E+04
     0.000000000000E+00 0.000000000000E+00 0.000000000000E+00 8.500000000000E+01
S36 2025 01 01 03 29 36 0.000000000000E+00 0.000000000000E+00 2.717850000000E+05
     4.200368800000E+04 0.000000000000E+00 0.000000000000E+00 6.300000000000E+01
     3.674846960000E+03 0.000000000000E+00 0.000000000000E+00 3.276700000000E+04
     0.000000000000E+00 0.000000000000E+00 0.000000000000E+00 2.350000000000E+02
S23 2025 01 01 03 29 52 0.000000000000E+00 0.000000000000E+00 2.717920000000E+05
     3.866796400000E+04 0.000000000000E+00 0.000000000000E+00 6.300000000000E+01
     1.681330800000E+04 0.000000000000E+00 0.000000000000E+00 3.276700000000E+04
     0.000000000000E+00 0.000000000000E+00 0.000000000000E+00 8.600000000000E+01
